     3.02           N: GNSS NAV DATA    C: BEIDOU           RINEX VERSION / TYPE
Spider v7.5.1.8670  SMO                 20211005 010551 UTC PGM / RUN BY / DATE
BDSA   7.4506D-09  3.7253D-07 -3.0398D-06  6.1393D-06       IONOSPHERIC CORR
BDSB   1.1878D+05  4.9152D+05 -6.6191D+06  8.3231D+06       IONOSPHERIC CORR
BDUT -2.7939677238D-09-9.769962617D-15 176345  822          TIME SYSTEM CORR
     4     4   573     6                                    LEAP SECONDS
                                                            END OF HEADER
C20 2021 10 05 00 00 00-7.956904591992D-04 3.186784169884D-12 0.000000000000D+00
     1.000000000000D+00-1.207812500000D+02 4.079098392396D-09 6.272096057519D-01
    -5.892477929592D-06 5.394803592935D-04 4.439614713192D-06 5.282622060776D+03
     1.728000000000D+05 7.916241884232D-08 1.891837542376D+00 2.840533852577D-08
     9.668053712101D-01 2.748281250000D+02-2.592448699951D-01-7.194228324181D-09
    -4.189460167670D-10                    8.220000000000D+02                   
     2.000000000000D+00 0.000000000000D+00 2.300000012667D-08 2.300000012667D-08
     1.728000000000D+05 1.000000000000D+00                                      
C30 2021 10 05 00 00 00 4.825402284041D-04 1.148414696672D-12 0.000000000000D+00
     1.000000000000D+00 2.070312500000D+01 3.377283563921D-09 2.090640212516D+00
     9.145587682724D-07 3.185212844983D-04 1.530535519123D-05 5.282621807098D+03
     1.728000000000D+05 4.703179001808D-08-2.214760483150D-01-2.048909664154D-08
     9.653477225617D-01 5.571875000000D+01 4.161062537300D-01-6.544201180958D-09
    -1.878649735776D-10                    8.220000000000D+02                   
     2.000000000000D+00 0.000000000000D+00-9.799999922677D-09-9.799999922677D-09
     1.728000000000D+05 1.000000000000D+00                                      
C27 2021 10 05 00 00 00 6.079971790314D-04 6.054712287096D-12 0.000000000000D+00
     1.000000000000D+00 4.198437500000D+01 3.333710196785D-09 2.021689239312D+00
     1.979526132345D-06 5.628707585856D-04 1.472095027566D-05 5.282628200531D+03
     1.728000000000D+05 4.656612873077D-08-1.833853817315D-01 1.117587089539D-08
     9.667007711045D-01 6.601562500000D+01 1.243186569539D+00-6.560273213552D-09
    -8.250343463967D-11                    8.220000000000D+02                   
     2.000000000000D+00 0.000000000000D+00-4.499999928242D-09-4.499999928242D-09
     1.728000000000D+05 1.000000000000D+00                                      
C13 2021 10 05 00 00 00 4.314152756706D-04 1.274713667954D-11 0.000000000000D+00
     1.000000000000D+00 5.633906250000D+02 1.267909999214D-09-2.736014172784D+00
     1.852773129940D-05 4.294855636545D-03 7.391907274723D-06 6.493006593704D+03
     1.728000000000D+05-3.399327397346D-08 7.601125065369D-01-1.774169504642D-07
     1.007285657422D+00 2.526562500000D+01-2.634551910908D+00-2.471174376240D-09
     1.100045832203D-09                    8.220000000000D+02                   
     2.000000000000D+00 0.000000000000D+00-9.699999914403D-09 2.700000001354D-09
     1.728000000000D+05 0.000000000000D+00                                      
C08 2021 10 05 00 00 00-8.957161335275D-04 3.704059281517D-11 0.000000000000D+00
     1.000000000000D+00 5.143125000000D+02 1.120046611014D-09-1.992128973859D+00
     1.695705577731D-05 1.941361580975D-03 7.287133485079D-06 6.493312929153D+03
     1.728000000000D+05-4.889443516731D-08 7.829000186540D-01-1.457519829273D-07
     1.045693256430D+00 4.373437500000D+01 3.099634894726D+00-2.372598784106D-09
     1.111832070855D-09                    8.220000000000D+02                   
     2.000000000000D+00 0.000000000000D+00 1.069999999714D-08-9.000000189552D-10
     1.728000000000D+05 0.000000000000D+00                                      
C06 2021 10 05 00 00 00 2.876365324482D-04 5.523137502905D-11-5.421010862428D-20
     5.000000000000D+00-3.443593750000D+02 3.139416504538D-10 2.227550123455D+00
    -1.060822978616D-05 2.308260533027D-03 3.788620233536D-05 6.493509300232D+03
     1.728000000000D+05 1.527369022369D-07 2.909202651236D+00 5.261972546577D-08
     9.466919343647D-01-9.435625000000D+02 3.051904232907D+00-1.608281285925D-09
     1.021471102147D-10                    8.220000000000D+02                   
     2.000000000000D+00 0.000000000000D+00 7.899999765471D-09-1.899999935162D-09
     1.728000000000D+05 4.000000000000D+00                                      
C38 2021 10 05 00 00 00 1.800504978746D-04 2.648548047546D-12 0.000000000000D+00
     1.000000000000D+00 5.875312500000D+02 1.431130991492D-09-1.849488997132D+00
     1.926999539137D-05 2.296627964824D-03 6.111338734627D-06 6.493073431015D+03
     1.728000000000D+05-5.494803190231D-08 7.641366591647D-01-2.039596438408D-07
     9.803185693347D-01 6.137500000000D+01-3.098165721209D+00-2.607251525788D-09
     1.081116418611D-09                    8.220000000000D+02                   
     2.000000000000D+00 0.000000000000D+00 5.199999986161D-09 5.199999986161D-09
     1.728000000000D+05 1.000000000000D+00                                      
C02 2021 10 05 00 00 00 2.779635833576D-04-3.305800078124D-11 0.000000000000D+00
     1.000000000000D+00-2.042968750000D+02 1.368271274060D-09 1.583516191760D+00
    -6.352085620165D-06 9.402486030012D-04 3.603613004088D-05 6.493425209045D+03
     1.728000000000D+05-5.308538675308D-08 2.903364967342D+00 8.614733815193D-08
     8.281090046926D-02-1.107921875000D+03-2.985823430365D+00-6.289547771487D-10
     1.185763709444D-10                    8.220000000000D+02                   
     2.000000000000D+00 0.000000000000D+00 7.000000024071D-10-1.420000028673D-08
     1.728004000000D+05 0.000000000000D+00                                      
C01 2021 10 05 00 00 00-5.765372188762D-04 3.872369092051D-11 0.000000000000D+00
     1.000000000000D+00 5.116250000000D+02 2.253665254415D-09-8.259343594127D-01
     1.649837940931D-05 7.222429849207D-04 3.528222441673D-05 6.493495841980D+03
     1.728000000000D+05 4.889443516731D-08-3.138978560885D+00-1.583248376846D-08
     8.289797042750D-02-1.090609375000D+03 2.381041501307D-01-1.265409887985D-09
     2.532248299936D-10                    8.220000000000D+02                   
     2.000000000000D+00 0.000000000000D+00-5.700000027531D-09-1.019999995577D-08
     1.728004000000D+05 0.000000000000D+00                                      
C04 2021 10 05 00 00 00 1.447178656235D-04 7.685141412139D-11 0.000000000000D+00
     1.000000000000D+00 4.412968750000D+02 1.816504280328D-09-1.673368763554D-01
     1.425994560122D-05 4.305584589019D-04 3.550713881850D-05 6.493394588470D+03
     1.728000000000D+05 8.987262845039D-08 3.107023435632D+00-1.164153218269D-08
     7.620649243201D-02-1.096609375000D+03-1.145533496182D-01-8.507497484267D-10
     2.382242181298D-10                    8.220000000000D+02                   
     2.000000000000D+00 0.000000000000D+00 4.799999953065D-09-8.599999823389D-09
     1.728004000000D+05 0.000000000000D+00                                      
C59 2021 10 05 00 00 00-2.128072082996D-07 3.046451979571D-13 0.000000000000D+00
     1.000000000000D+00 6.656875000000D+02 2.748328675750D-09-1.570971157209D+00
     2.149678766727D-05 4.789787344635D-04 3.221118822694D-05 6.493504705429D+03
     1.728000000000D+05 4.330649971962D-08-3.058304067943D+00-4.470348358154D-08
     1.030026151352D-01-9.956250000000D+02 8.239997585088D-01-1.782574199360D-09
     3.014411220637D-10                    8.220000000000D+02                   
     2.000000000000D+00 0.000000000000D+00 4.219999993893D-08 4.219999993893D-08
     1.728004000000D+05 1.000000000000D+00                                      
C60 2021 10 05 00 00 00-5.251495167613D-07 1.199040866595D-13 0.000000000000D+00
     1.000000000000D+00 1.000500000000D+03 3.256921399242D-09-1.069833701519D+00
     3.268895670772D-05 2.995621180162D-04 1.451652497053D-05 6.493436796188D+03
     1.728000000000D+05 6.705522537231D-08-2.721244007650D+00-8.055940270424D-08
     5.839055087510D-02-4.530312500000D+02-1.059755116129D+00-2.473674376446D-09
     2.535819887406D-10                    8.220000000000D+02                   
     2.000000000000D+00 0.000000000000D+00 4.980000056776D-08 4.980000056776D-08
     1.728004000000D+05 1.000000000000D+00                                      
C05 2021 10 05 00 00 00 2.567478222772D-04 1.336086796755D-11 0.000000000000D+00
     1.000000000000D+00-3.253750000000D+02 1.267195681720D-09 7.962495630589D-01
    -1.050531864166D-05 2.992153167725D-04 3.047147765756D-05 6.493415599823D+03
     1.728000000000D+05 4.051253199577D-08 2.822729534312D+00 2.281740307808D-08
     7.512318550221D-02-9.282031250000D+02-2.561658151116D+00-2.889405936735D-10
     1.535778275386D-11                    8.220000000000D+02                   
     2.000000000000D+00 0.000000000000D+00-5.999999941331D-10-9.399999889581D-09
     1.728004000000D+05 0.000000000000D+00                                      
C03 2021 10 05 00 00 00-6.996269803494D-05 6.510081362876D-11 0.000000000000D+00
     1.000000000000D+00-4.367656250000D+02 1.690070416949D-09 7.394342852974D-01
    -1.395167782903D-05 7.487956900150D-04 3.442168235779D-05 6.493563831329D+03
     1.728000000000D+05-1.862645149231D-09 2.791602944416D+00 1.434236764908D-07
     7.388946133551D-02-1.056390625000D+03-1.569474246765D+00-9.693260638599D-10
     6.250260031759D-11                    8.220000000000D+02                   
     2.000000000000D+00 0.000000000000D+00 2.299999968258D-09-8.099999782019D-09
     1.728004000000D+05 0.000000000000D+00                                      
